X,Y,neighborhood_id,neighborhood_name,device_serial,device_connectedto,device_address,device_lat,device_long,device_tags,etl_updatedtimestamp,is_current,org1,org2,inside_outside,landmark,ObjectId
-7910723.20873405,5208784.59637099,N_568579452955534204,Dorchester,Q2CK-H48M-P2E9,DOT-BFD21-AP3,"641 Columbia Rd., Dorchester, MA",42.3183362717841,-71.0632356684482, BFD Engine-21 Outside ,2023/06/12 07:56:10+00,1,BFD,,Outside,Engine 21,1
-7908681.04359801,5210972.71024671,N_568579452955537848,South Boston,Q2CK-LEG8-FAFN,SB-HIGHSCHOOL-AP2,"95 G St., South Boston, MA",42.3328686671197,-71.0448905869042, recently-added ,2023/06/12 07:56:11+00,1,,,,,2
-7917511.80329518,5199475.67604279,N_568579452955538316,Hyde Park,Q2CK-NERF-4JX7,HP-BPDE18-AP2,"1249 Hyde Park Ave., Hyde Park, MA",42.2564734025513,-71.1242186509677, recently-added ,2023/06/12 07:56:12+00,1,,,,,3
-7913611.28742313,5208018.69003845,N_579275502070532581,Roxbury,Q2CK-DSFT-7HTL,ROX-TROTTER-AP3,"Humbolt & Waumbeck St., Roxbury, MA",42.3132486987508,-71.0891797207296, BPS Outside Trotter-School ,2023/06/12 07:56:14+00,1,BPS,,Outside,Trotter School,4
-7914566.17244166,5208795.9466497,N_579275502070532581,Roxbury,Q2CK-2D9P-VKGR,ROX-BFDE42-AP1,"1870 Columbus Ave., Roxbury, MA",42.3184116635137,-71.0977575987968, BFD Engine-42 Outside ,2023/06/12 07:56:15+00,1,BFD,,Outside,Engine 42,5
-7913800.57146551,5210829.50780903,N_579275502070532581,Roxbury,Q2CK-SQTZ-N3W3,ROX-Madison Park-HS-AP2,"75 Malcolm X Blvd, Boston, MA 02120",42.3319176883679,-71.0908800882127, recently-added ,2023/06/12 07:56:15+00,1,,,,,6
-7912206.86899669,5207707.12890424,N_579275502070532581,Roxbury,Q2CK-5YEE-273N,ROX-MLKSCHOOL-AP2,"77 Lawrence Ave., Roxbury, MA",42.3111790198738,-71.0765636153519, BPS MLK Outside ,2023/06/12 07:56:15+00,1,BPS,,Outside,MLK,7
-7913800.57146551,5210829.50780903,N_579275502070532581,Roxbury,Q2CK-SU8N-5VU8,ROX-Madison Park-HS-AP3,"75 Malcolm X Blvd, Boston, MA 02120",42.3319176883679,-71.0908800882127, recently-added ,2023/06/12 07:56:15+00,1,,,,,8
-7917899.44707971,5203994.95053004,N_601230550253961252,Roslindale,Q2CK-6PU6-G499,ROS-COMMUNITY-AP2,"6 Cummings Highway, Roslindale, MA",42.2865140418411,-71.1277009143321, BCYF/BPL Outside Roslindale-Comm-Center ,2023/06/12 07:56:16+00,1,BCYF,BPL,Outside,Roslindale Comm Center,9
-7918007.38443269,5203860.20018636,N_601230550253961252,Roslindale,Q2CK-6V2L-TCDF,ROS-BPL-AP1,"4246 Washington St., Roslindale MA",42.2856185329317,-71.1286705320712, BPL Outside Roslindale-branch ,2023/06/12 07:56:16+00,1,BPL,,Outside,Roslindale branch,10
-7910075.12313436,5215090.02956264,N_601230550253961310,Downtown Boston - City Hall - Quincy Market,Q3AE-GDTR-3C3W,DT-CITYHALL-AP2,"One City Hall Sq
Boston MA 02201",42.3602048112712,-71.057413816452,,2023/06/12 07:56:17+00,1,,,,,11
-7910125.88209846,5215159.30061953,N_601230550253961310,Downtown Boston - City Hall - Quincy Market,Q3AE-MULH-9V9B,DT-CITYHALL-9th-Floor-Interior Ring,One City Hall Sq.  Boston MA 02201,42.3606646213586,-71.0578697919846,,2023/06/12 07:56:17+00,1,,,,,12
-7910346.83288335,5215113.3189697,N_601230550253961310,Downtown Boston - City Hall - Quincy Market,Q3AE-HJRQ-D68Q,DT-CITYHALL-GUARDSHACK,One City Hall Sq Boston MA 02201,42.3603594029692,-71.0598546266556,,2023/06/12 07:56:17+00,1,,,,,13
-7909698.31247149,5215107.34732686,N_601230550253961310,Downtown Boston - City Hall - Quincy Market,Q3AE-ARNB-HFAK,DT-QUINCYMARKET-AP2,"Faneuil Hall Marketplace
Boston MA 02201",42.3603197641085,-71.0540288686752,,2023/06/12 07:56:17+00,1,,,,,14
-7909895.97384932,5215084.65508409,N_601230550253961310,Downtown Boston - City Hall - Quincy Market,Q3AE-Q7YG-V974,DT-QUINCYMARKET-AP1,"Faneuil Hall Marketplace
Boston MA 02201",42.36016913621,-71.0558044910431,,2023/06/12 07:56:17+00,1,,,,,15
-7910171.86374829,5215084.05791981,N_601230550253961310,Downtown Boston - City Hall - Quincy Market,Q3AE-JLUF-293V,DT-City Hall Front right side up stairs,One City Hall Sq  Boston MA 02201,42.360165172313,-71.0582828521729,,2023/06/12 07:56:17+00,1,,,,,16
-7910115.13314136,5215168.85524806,N_601230550253961310,Downtown Boston - City Hall - Quincy Market,Q3AE-3S8D-CZPE,DT-CITYHALL-4th-Floor-Patio-Daycare,One City Hall Sq  Boston MA 02201,42.3607280431756,-71.05777323246,,2023/06/12 07:56:17+00,1,,,,,17
-7910100.20403427,5215143.17718387,N_601230550253961310,Downtown Boston - City Hall - Quincy Market,Q3AE-3A2V-JNVG,DT-CITYHALL-AP1,"One City Hall Sq
Boston MA 02201",42.3605575968973,-71.0576391220093,,2023/06/12 07:56:17+00,1,,,,,18
-7910106.77284139,5215154.52330526,N_601230550253961310,Downtown Boston - City Hall - Quincy Market,Q3AE-ZUF3-Y73P,DT-CITYHALL-4th-Floor-Patio-AP1,One City Hall Sq  Boston MA 02201,42.3606329104261,-71.0576981306076,,2023/06/12 07:56:17+00,1,,,,,19
-7909890.00220648,5215062.56000561,N_601230550253961310,Downtown Boston - City Hall - Quincy Market,Q3AE-F6RV-VVHP,DT-QUINCYMARKET-AP3,"Faneuil Hall Marketplace
Boston MA 02201",42.3600224718566,-71.0557508468628,,2023/06/12 07:56:17+00,1,,,,,20
-7909701.89545719,5215082.26642696,N_601230550253961310,Downtown Boston - City Hall - Quincy Market,Q3AE-PMFQ-JUX3,DT-QUINCYMARKET-AP4,"Faneuil Hall Marketplace
Boston MA 02201",42.3601532806207,-71.0540610551834,,2023/06/12 07:56:17+00,1,,,,,21
-7910113.34164851,5215071.51746986,N_601230550253961310,Downtown Boston - City Hall - Quincy Market,Q3AE-ZXW8-H9ZW,DT-CITYHALL-8th-Floor-Interior Ring,"One City Hall Sq
Boston MA 02201",42.3600819304195,-71.0577571392059,,2023/06/12 07:56:17+00,1,,,,,22
-7910079.30328435,5215045.24224138,N_601230550253961310,Downtown Boston - City Hall - Quincy Market,Q3AE-TBT5-D72C,DT-Beer garden 1- lower part of beer garden,One City Hall Sq  Boston MA 02201,42.3599075184754,-71.0574513673782,,2023/06/12 07:56:17+00,1,,,,,23
-7907934.08964348,5216909.14299728,N_601230550253961436,East Boston,Q2CK-NU9A-QWKC,EB-10GOVE-AP2,"10 Gove St, Boston, MA 02128, USA",42.3722786763649,-71.0381805853654, E-Boston-Main-Street June2016 Outside Private-residence ,2023/06/12 07:56:19+00,1,,,Outside,E Boston Main Street Private residence,24
-7907994.31356349,5216273.74709104,N_601230550253961436,East Boston,Q2CK-DR2X-L8TF,EB-ENGINE9-AP2,"239 Sumner St., East Boston, MA - Left front on Station",42.3680616745087,-71.0387215860435, BFD E-Boston-Main-Street Engine-9 Outside ,2023/06/12 07:56:19+00,1,BFD,,Outside,E Boston Main Street Engine 9,25
-7908004.05860206,5216720.37125784,N_601230550253961436,East Boston,Q2CK-D66G-X9MY,EB-BPDA7-AP4,"69 Paris St., East Boston, MA - Right back pointing towards Maverick St",42.3710258637724,-71.0388091272144, BPD District-A-7 E-Boston-Main-Street Outside ,2023/06/12 07:56:19+00,1,BPD,,Outside,District A 7 E Boston Main Street,26
-7907904.36757913,5216553.24360091,N_601230550253961436,East Boston,Q2CK-NQEV-RYEW,EB-154MAVERICK-AP1,"154 Maverick St, East Boston MA",42.3699166745967,-71.0379135875185, E-Boston-Main-Street June2016 Outside Private-residence recently-added ,2023/06/12 07:56:19+00,1,,,Outside,E Boston Main Street Private residence,27
-7907994.31356349,5216273.74709104,N_601230550253961436,East Boston,Q2EK-N2DB-5PSX,EB-ENGINE9-AP1,"239 Sumner St, Boston, MA 02128",42.3680616745087,-71.0387215860435, BFD E-Boston-Main-Street Engine-9 Outside ,2023/06/12 07:56:19+00,1,BFD,,Outside,E Boston Main Street Engine 9,28
-7913800.57146551,5210829.50780903,N_579275502070532581,Roxbury,Q2CK-SSY2-PBYW,ROX-Madison Park-HS-AP1,"75 Malcolm X Blvd, Boston, MA 02120",42.3319176883679,-71.0908800882127, recently-added ,2023/06/12 07:56:14+00,1,,,,,29
-7913720.91942806,5209401.49372063,N_579275502070532581,Roxbury,Q2CK-NU6F-VDER,ROX-SHELBURNE-AP1,"2730 Washington St., Roxbury, MA",42.3224337457746,-71.0901645617862, BCYF/BPL Outside Shelbourne-Comm-Center ,2023/06/12 07:56:15+00,1,BCYF,BPL,Outside,Shelbourne Comm Center,30
-7912085.71462733,5208770.45455651,N_579275502070532581,Roxbury,Q2CK-5PKB-8LG8,ROX-WINTHROP-AP1,"35 Brookford St., Roxbury, MA",42.3182423377658,-71.0754752671346, BPS Outside Winthrop-School ,2023/06/12 07:56:15+00,1,BPS,,Outside,Winthrop School,31
-7912356.6389058,5210582.18137717,N_579275502070532581,Roxbury,Q2CK-HDFV-VYBC,ROX-ORCHARD-AP2,"906 Albany St., Roxbury, MA",42.330275209131,-71.0779090213365, BPS Orchard-Garden-School Outside recently-added ,2023/06/12 07:56:15+00,1,BPS,,Outside,Orchard Garden School,32
-7917899.44707971,5203994.95053004,N_601230550253961252,Roslindale,Q2CK-5TD4-6S66,ROS-COMMUNITY-AP1,"6 Cummings Highway, Roslindale, MA",42.2865140418411,-71.1277009143321, BCYF/BPL Outside Roslindale-Comm-Center ,2023/06/12 07:56:16+00,1,BCYF,BPL,Outside,Roslindale Comm Center,33
-7918007.38443269,5203860.20018636,N_601230550253961252,Roslindale,Q2CK-7FHC-97HP,ROS-BPL-AP2,"4246 Washington St., Roslindale MA",42.2856185329317,-71.1286705320712, BPL Outside Roslindale-branch ,2023/06/12 07:56:16+00,1,BPL,,Outside,Roslindale branch,34
-7914651.19303866,5210877.03554271,N_601230550253961587,BCYF Tremont,Q2FD-55JF-J4WS,BCYF-4th FL Library,"1483 Tremont St, Boston, MA",42.3322333121371,-71.0985213518143, BCYF Inside employee ,2023/06/12 07:56:21+00,1,BCYF,,Inside,employee,35
-7914642.83273869,5210885.99300696,N_601230550253961587,BCYF Tremont,Q2FD-5N3B-TTKT,BCYF-4th FL Dep. Comm,"1483 Tremont St, Boston, MA",42.332292796989,-71.0984462499619, BCYF employee Inside ,2023/06/12 07:56:21+00,1,BCYF,,Inside,employee,36
-7914665.52498146,5210889.57599266,N_601230550253961587,BCYF Tremont,Q2FD-4SE4-JW2S,BCYF-3rd FL GED,"1483 Tremont St, Boston, MA",42.332316590914,-71.098650097847, BCYF Inside employee ,2023/06/12 07:56:21+00,1,BCYF,,Inside,employee,37
-7914627.30646732,5210869.27240702,N_601230550253961587,BCYF Tremont,Q2QD-R397-ZFBT,BCYF-1st floor AP1 ,"1483 Tremont St, Boston, MA",42.3321817585533,-71.0983067750931, BCYF Inside UXI employee ,2023/06/12 07:56:21+00,1,BCYF,,Inside,UXI employee,38
-7914612.37736023,5210875.24404986,N_601230550253961587,BCYF Tremont,Q2QD-U3LC-V2UB,BCYF-1st floor AP2 ,"1483 Tremont St, Boston, MA",42.33222141516,-71.0981726646423, BCYF Inside employee ,2023/06/12 07:56:21+00,1,BCYF,,Inside,employee,39
-7910531.5043242,5206833.9936689,N_601230550253961607,Maintenance,Q2CK-FBVU-CKYV,DOT-LINDEN-AP1,"Linden and Adams St., Dorchester, MA",42.3053784808087,-71.0615135584342, Linden Outside recently-added ,2023/06/12 07:56:21+00,1,,,Outside,Linden,40
-7912997.17250358,5210563.16541154,N_601230550253961809,Bolling,Q2FD-DQJY-R4K6,BOL-FOYER-AP2,"2300 Washington St., Roxbury 02119",42.3301489235268,-71.0836630325452, Bolling CoB-Employee Inside ,2023/06/12 07:56:22+00,1,,,Inside,CoB Employee,41
-7912997.17250358,5210563.16541154,N_601230550253961809,Bolling,Q2FD-3YYZ-LW7E,BOL-PUBLOBBY-AP1,"2300 Washington St., Roxbury 02119",42.3301489235268,-71.0836630325452, Bolling Inside ,2023/06/12 07:56:22+00,1,,,Inside,Bolling,42
-7912997.17250358,5210563.16541154,N_601230550253961809,Bolling,Q2FD-6RML-C4S6,BOL-SCHLOBBY-AP1,"2300 Washington St., Roxbury 02119",42.3301489235268,-71.0836630325452, Bolling CoB-Employee Inside ,2023/06/12 07:56:22+00,1,,,Inside,CoB Employee,43
-7912997.17250358,5210563.16541154,N_601230550253961809,Bolling,Q2FD-MTWE-FN62,BOL-WELCOMELOBBY-AP1,"2300 Washington St., Roxbury 02119",42.3301489235268,-71.0836630325452, Bolling CoB-Employee Inside ,2023/06/12 07:56:22+00,1,,,Inside,CoB Employee,44
-7912997.17250358,5210563.16541154,N_601230550253961809,Bolling,Q2FD-VT33-84WZ,BOL-ROOFDECK-AP1,"2300 Washington St., Roxbury 02119",42.3301489235268,-71.0836630325452, Bolling Inside ,2023/06/12 07:56:22+00,1,,,Inside,Bolling,45
-7912229.84363062,5210048.36168032,N_601230550253962329,BCYF Indoor,Q2LD-VVDJ-5Z5M,BCYF-Vine Street-Room 123,"339 Dudley Street. Boston, MA",42.32673,-71.07677,,2023/06/12 07:56:24+00,1,,,,,46
-7913720.91942806,5209401.49372063,N_601230550253962329,BCYF Indoor,Q2JD-UQKQ-B9LG,BCYF-Shelbourne-AP1,"2730 Washington St, Roxbury, MA - large meeting room",42.3224337457746,-71.0901645617862, BCYF BCYF-Grant Inside Roxbury Shelburne ,2023/06/12 07:56:24+00,1,BCYF,,Inside,Roxbury Shelburne,47
-7916479.62103894,5207357.65377669,N_601230550253962329,BCYF Indoor,Q2JD-XS34-CU2K,BCYF-Curtis-Hall-AP2,"20 South Street, Jamaica Plain - Room 217 teen room",42.3088574,-71.1149464, BCYF BCYF-Grant Curtis Inside Jamaica-Plain ,2023/06/12 07:56:24+00,1,BCYF,,Inside,Jamaica Plain,48
-7917899.44707971,5203994.95053004,N_601230550253962329,BCYF Indoor,Q2JD-XNJC-E9DV,BCYF-Roslindale-AP1,"6 Cummins Highway, Roslindale, MA - Meeting room",42.2865140418411,-71.1277009143321, BCYF BCYF-Grant Inside Roslindale ,2023/06/12 07:56:24+00,1,BCYF,,Inside,Roslindale,49
-7910482.19379852,5218090.54673119,N_601230550253962329,BCYF Indoor,Q2JD-UTKP-YWHB,BCYF-Charlestown-AP1,"240 Medford St., Charlestown, MA - meeting room",42.3801186758107,-71.0610705944453, BCYF BCYF-Grant Charlestown Inside ,2023/06/12 07:56:24+00,1,BCYF,,Inside,Charlestown,50
-7913796.68772744,5210851.40437274,N_601230550253962329,BCYF Indoor,Q2JD-XRRZ-NCRG,BCYF-Madison-AP1,"75 Malcolm X Blvd. Roxbury, MA - Admin office",42.3320631,-71.0908452, BCYF BCYF-Grant Inside Madison-Park Roxbury ,2023/06/12 07:56:24+00,1,BCYF,,Inside,Madison Park,51
-7917899.44707971,5203994.95053004,N_601230550253962329,BCYF Indoor,Q2JD-XLEC-WCDN,BCYF-Roslindale-AP3,"6 Cummins Highway, Roslindale, MA - room 205 teen room",42.2865140418411,-71.1277009143321, BCYF BCYF-Grant Inside Roslindale ,2023/06/12 07:56:24+00,1,BCYF,,Inside,Roslindale,52
-7909171.54099616,5205173.36864551,N_601230550253962329,BCYF Indoor,Q2JD-XRN5-6G22,BCYF-Murphy-AP2,"One Worrell Street, Dorchester, MA - Admin office B 123",42.2943449,-71.0492968, BCYF BCYF-Grant Dorchester Inside Murphy ,2023/06/12 07:56:24+00,1,BCYF,,Inside,Dorchester Murphy,53
-7909171.54099616,5205173.36864551,N_601230550253962329,BCYF Indoor,Q2JD-WG4P-EVHX,BCYF-Murphy-AP1,"One Worrell St., Dorchester, MA -  inside lobby reception desk",42.2943449,-71.0492968, BCYF BCYF-Grant Dorchester Inside Murphy ,2023/06/12 07:56:24+00,1,BCYF,,Inside,Dorchester Murphy,54
-7917899.44707971,5203994.95053004,N_601230550253962329,BCYF Indoor,Q2JD-URL9-7FSE,BCYF-Roslindale-AP2,"6 Cummins Highway, Roslindale, MA - Room 108 after school room",42.2865140418411,-71.1277009143321, BCYF BCYF-Grant Inside Roslindale ,2023/06/12 07:56:24+00,1,BCYF,,Inside,Roslindale,55
-7913720.91942806,5209401.49372063,N_601230550253962329,BCYF Indoor,Q2JD-VSFG-ZKNW,BCYF-Shelbourne-AP2,"2730 Washington St, Roxbury, MA - Game room (Teen room)",42.3224337457746,-71.0901645617862, BCYF BCYF-Grant Inside Roxbury Shelburne ,2023/06/12 07:56:24+00,1,BCYF,,Inside,Roxbury Shelburne,56
-7916479.62103894,5207357.65377669,N_601230550253962329,BCYF Indoor,Q2JD-VG9W-FPTX,BCYF-Curtis-Hall-AP1,"20 South Street, Jamaica Plain - room 204 Senior Center
Asset tag #701689",42.3088574,-71.1149464, BCYF BCYF-Grant Curtis Inside Jamaica-Plain ,2023/06/12 07:56:24+00,1,BCYF,,Inside,Jamaica Plain,57
-7910651.00511018,5207219.57030512,N_568579452955534204,Dorchester,Q2CK-F72Z-RK25,DOT-MATHER-AP1,"1 Parish St., Dorchester, MA",42.3079400655335,-71.0625870522593, BPS Mather-School Outside ,2023/06/12 07:56:10+00,1,BPS,,Outside,Mather School,58
-7913011.85578151,5208392.07633739,N_579275502070532581,Roxbury,Q2CK-GLBJ-XZRY,ROX-BLA-AP2,"205 Townsend St., Roxbury, MA - east side of roof",42.3157289882279,-71.0837949346751, BPS Boston-Latin-Academy Outside ,2023/06/12 07:56:14+00,1,BPS,,Outside,Boston Latin Academy,59
-7913720.91942806,5209401.49372063,N_579275502070532581,Roxbury,Q2CK-DPQP-RN6X,ROX-SHELBURNE-AP2,"2730 Washington St., Roxbury, MA",42.3224337457746,-71.0901645617862, BCYF/BPL Outside Shelbourne-Comm-Center ,2023/06/12 07:56:15+00,1,BCYF,BPL,Outside,Shelbourne Comm Center,60
-7912222.88106393,5210060.51558676,N_579275502070532581,Roxbury,Q2CK-NJTU-PZA7,ROX-VINE-AP4,"339 Dudley St, Roxbury",42.3268107188774,-71.0767074541993, recently-added ,2023/06/12 07:56:15+00,1,,,,,61
-7909213.08543013,5205135.00799119,N_601230550253962329,BCYF Indoor,Q2KD-EVN5-DSFP,BCYF-Leahy-Holloran-AP1,"One Worrell St., Dorchester, MA - inside lobby reception desk",42.29409,-71.04967, BCYF BCYF-Grant Dorchester Inside Murphy ,2023/06/12 07:56:24+00,1,BCYF,,Inside,Dorchester Murphy,62
-7912229.84363062,5210048.36168032,N_601230550253962329,BCYF Indoor,Q2LD-HLM8-574W,BCYF-Vine Street-Senior Lounge 222 AP1,"339 Dudley Street. Boston, MA",42.32673,-71.07677,,2023/06/12 07:56:24+00,1,,,,,63
-7912229.84363062,5210048.36168032,N_601230550253962329,BCYF Indoor,Q2LD-YT4H-L4ES,BCYF-Vine Street-room 106 Teen,"339 Dudley Street. Boston, MA",42.32673,-71.07677,,2023/06/12 07:56:24+00,1,,,,,64
-7912229.84363062,5210048.36168032,N_601230550253962329,BCYF Indoor,Q2LD-DSEF-JAHC,BCYF-Vine Street- Classroom B,"339 Dudley Street. Boston, MA",42.32673,-71.07677,,2023/06/12 07:56:24+00,1,,,,,65
-7912229.84363062,5210048.36168032,N_601230550253962329,BCYF Indoor,Q2LD-D7L7-Y73T,BCYF-Vine Street-Fitness room 219,"339 Dudley Street. Boston, MA",42.32673,-71.07677,,2023/06/12 07:56:24+00,1,,,,,66
-7912229.84363062,5210048.36168032,N_601230550253962329,BCYF Indoor,Q2LD-TEW9-ABKD,BCYF-Vine Street-Art Room 122,"339 Dudley Street. Boston, MA",42.32673,-71.07677,,2023/06/12 07:56:24+00,1,,,,,67
-7912229.84363062,5210048.36168032,N_601230550253962329,BCYF Indoor,Q2LD-DUHQ-HF7B,BCYF-Vine Street-Computer room 205,"339 Dudley Street. Boston, MA",42.32673,-71.07677,,2023/06/12 07:56:24+00,1,,,,,68
-7912229.84363062,5210048.36168032,N_601230550253962329,BCYF Indoor,Q2LD-GHSY-3U4C,BCYF-Vine Street-Dance Studio 209 left,"339 Dudley Street. Boston, MA",42.32673,-71.07677,,2023/06/12 07:56:24+00,1,,,,,69
-7910862.84028368,5213304.26001719,N_601230550253962329,BCYF Indoor,Q3AC-X96E-VGA8,BCYF-Quincy_CC_AP1,"BPS-Quincy_Elem_232, 885 Washington Street, Boston, MA 02111",42.34835,-71.06449, BCYF BCYF-Grant Inside ,2023/06/12 07:56:24+00,1,BCYF,,Inside,,70
-7916421.18137263,5207616.20143762,N_601230550253962845,Jamaica Plain,Q2CK-NLSB-E9TE,JP-BFDE28-AP3,"746 Centre Street, Jamaica Plain",42.3105749822276,-71.1144214275456, recently-added ,2023/06/12 07:56:25+00,1,,,,,71
-7916421.18137263,5207616.20143762,N_601230550253962845,Jamaica Plain,Q2CK-NER6-DHDA,JP-BFDE28-AP1,"746 Centre Street, Jamaica Plain",42.3105749822276,-71.1144214275456, recently-added ,2023/06/12 07:56:25+00,1,,,,,72
-7916421.18137263,5207616.20143762,N_601230550253962845,Jamaica Plain,Q2CK-NLUC-P9T6,JP-BFDE28-AP2,"746 Centre Street, Jamaica Plain",42.3105749822276,-71.1144214275456, recently-added ,2023/06/12 07:56:25+00,1,,,,,73
-7916494.62373062,5207354.5853439,N_601230550253962845,Jamaica Plain,Q2CK-LHCB-ZA9D,JP-Curtis Hall-BCYF-AP2,"20 South St, Jamaica Plain, MA 02130",42.3088370155248,-71.1150811714723, BCYF Centre-South-Main-Street Curtis-Hall Outside ,2023/06/12 07:56:25+00,1,BCYF,,Outside,Centre South Main Street Curtis Hall,74
-7916576.9372452,5207219.35909843,N_601230550253962845,Jamaica Plain,Q2CK-L8D3-H68P,JP-Curtis Hall-BCYF-AP3,"55 South St, Jamaica Plain",42.3079386624069,-71.1158206063547, Centre-South-Main-Street Lightpole Outside ,2023/06/12 07:56:25+00,1,,,Outside,Centre South Main Street,75
-7914649.4015458,5210876.43837842,L_601230550253962684,YEE Tremont,Q2FD-Z652-S5PF,BCYF_Tremont_YEE_2nd floor-AP1,"1483 Tremont St, Boston, MA",42.3322293464783,-71.0985052585602, DYEE Inside ,2023/06/12 07:56:26+00,1,DYEE,,Inside,,76
-7914621.93198876,5210868.07807845,L_601230550253962684,YEE Tremont,Q2FD-SU8V-RAXB,BCYF_Tremont_YEE_2nd floor-AP2,"1483 Tremont St, Boston, MA",42.3321738272289,-71.0982584953308, DYEE Inside ,2023/06/12 07:56:26+00,1,DYEE,,Inside,,77
-7914639.84691727,5210889.57599266,L_601230550253962684,YEE Tremont,Q2FD-SWSB-V67K,BCYF_Tremont_YEE_3rd floor-AP1,"1483 Tremont St, Boston, MA",42.332316590914,-71.0984194278717, DYEE Inside ,2023/06/12 07:56:26+00,1,DYEE,,Inside,,78
-7914665.52498146,5210882.41002126,L_601230550253962684,YEE Tremont,Q2FD-YZLD-HNUS,BCYF_Tremont_YEE_2nd floor-AP3,"1483 Tremont St, Boston, MA",42.332269003055,-71.098650097847, DYEE Inside ,2023/06/12 07:56:26+00,1,DYEE,,Inside,,79
-7914597.44825314,5210874.04972129,L_601230550253962684,YEE Tremont,Q3AC-XY74-7QFU,BCYF_Tremont_YEE_2nd floor-BACK-AP4,"1483 Tremont St, Boston, MA",42.3322134838406,-71.0980385541916, DYEE Inside ,2023/06/12 07:56:26+00,1,DYEE,,Inside,,80
-7909615.90380037,5217135.31723356,L_601230550253962688,Navy Yard,Q2EK-7S8P-KQQL,NavyYard-AP1,navy yard cambridge,42.373779683456,-71.0532885789871,,2023/06/12 07:56:27+00,1,,,,,81
-7911026.54562431,5208426.65261463,N_601230550253965255,Strand Theatre - External,Q2QD-42EC-LQ5Z,Strand_Marquee support left,"543 Columbia Road Boston, MA 02125",42.315958662778,-71.0659605900958, Outside ,2023/06/12 07:56:28+00,1,,,Outside,,82
-7911026.54562431,5208426.65261463,N_601230550253965255,Strand Theatre - External,Q2QD-86JE-GS2B,Strand_Marquee support right,"543 Columbia Road
Boston, MA 02125",42.315958662778,-71.0659605900958, Outside ,2023/06/12 07:56:28+00,1,,,Outside,,83
-7911026.54562431,5208426.65261463,N_601230550253965256,Strand Theatre - Internal,Q2KD-4CVV-PPU5,Strand_Orchestra lobby_AP3,"543 Columbia Rd, Boston, MA 02125",42.315958662778,-71.0659605900958, Inside ,2023/06/12 07:56:29+00,1,,,Inside,,84
-7911026.54562431,5208426.65261463,N_601230550253965256,Strand Theatre - Internal,Q2KD-JUWB-SVBB,Strand_Camera room theatre wall ,"543 Columbia Rd, Boston, MA 02125",42.315958662778,-71.0659605900958, Inside ,2023/06/12 07:56:29+00,1,,,Inside,,85
-7911026.54562431,5208426.65261463,N_601230550253965256,Strand Theatre - Internal,Q2KD-363A-MRZV,Strand_Camera room office left,"543 Columbia Rd, Boston, MA 02125",42.315958662778,-71.0659605900958, Inside ,2023/06/12 07:56:29+00,1,,,Inside,,86
-7911026.54562431,5208426.65261463,N_601230550253965256,Strand Theatre - Internal,Q2KD-6HAC-QJAE,Strand_Orchestra lobby_AP2,"543 Columbia Rd, Boston, MA 02125",42.315958662778,-71.0659605900958, Inside ,2023/06/12 07:56:29+00,1,,,Inside,,87
-7911026.54562431,5208426.65261463,N_601230550253965256,Strand Theatre - Internal,Q2KD-T5KV-QQRN,Strand_Stage Right ,"543 Columbia Rd, Boston, MA 02125",42.315958662778,-71.0659605900958, Inside ,2023/06/12 07:56:29+00,1,,,Inside,,88
-7911026.54562431,5208426.65261463,N_601230550253965256,Strand Theatre - Internal,Q2KD-V49N-RSA2,Strand_Orchestra lobby_AP1,"543 Columbia Rd, Boston, MA 02125",42.315958662778,-71.0659605900958, Inside ,2023/06/12 07:56:29+00,1,,,Inside,,89
-7911905.79471037,5206870.06566328,N_568579452955534204,Dorchester,Q2CK-GMBW-WDLD,DOT-HOLLAND-AP1,"85 Olney St., Dorchester, MA",42.3056181301162,-71.0738590190213, BCYF Holland-Comm-Center Outside ,2023/06/12 07:56:10+00,1,BCYF,,Outside,Holland Comm Center,90
-7910280.65980598,5205720.29651539,N_568579452955534204,Dorchester,Q2CK-NE73-ZSQB,DOT-BPDC11-AP1,"40 Gibson st, Dorchester, ma",42.2979790301264,-71.0592601837876, recently-added ,2023/06/12 07:56:10+00,1,,,,,91
-7910723.20873405,5208784.59637099,N_568579452955534204,Dorchester,Q2CK-ZRF5-JNQU,DOT-BFD21-AP1,"641 Columbia Rd., Dorchester, MA",42.3183362717841,-71.0632356684482, BFD Engine-21 Outside ,2023/06/12 07:56:10+00,1,BFD,,Outside,Engine 21,92
,,N_568579452955538316,Hyde Park,Q2CK-KB3U-MCEQ,,,,, recently-added ,2023/06/12 07:56:12+00,1,,,,,93
-7912356.6389058,5210582.18137717,N_579275502070532581,Roxbury,Q2CK-VQ39-UL8G,ROX-ORCHARD-AP3,"906 Albany St., Roxbury, MA",42.330275209131,-71.0779090213365, BPS Orchard-Garden-School Outside ,2023/06/12 07:56:15+00,1,BPS,,Outside,Orchard Garden School,94
-7912153.10721875,5207163.39538306,N_579275502070532581,Roxbury,Q2CK-64RA-6G66,ROX-FREDERICK-AP3,"Devon & Columbia Rd, Dorchester, MA",42.3075668730015,-71.0760806650837, BPS Frederick-Pilot-School Outside ,2023/06/12 07:56:15+00,1,BPS,,Outside,Frederick Pilot School,95
-7917899.44707971,5203994.95053004,N_601230550253961252,Roslindale,Q2CK-NLJC-KT9P,ROS-COMMUNITY-AP4,"6 cummins highway, Roslindale, ma",42.2865140418411,-71.1277009143321, BCYF Flaherty-Pool Outside ,2023/06/12 07:56:16+00,1,BCYF,,Outside,Flaherty Pool,96
-7911026.54562431,5208426.65261463,N_601230550253965256,Strand Theatre - Internal,Q2KD-6H83-WZ3E,Strand_Box Office ceiling,"543 Columbia Rd, Boston, MA 02125",42.315958662778,-71.0659605900958, Inside ,2023/06/12 07:56:29+00,1,,,Inside,,97
-7911026.54562431,5208426.65261463,N_601230550253965256,Strand Theatre - Internal,Q2KD-DQJU-LYTD,Strand_Stage Left,"543 Columbia Rd, Boston, MA 02125",42.315958662778,-71.0659605900958, Inside ,2023/06/12 07:56:29+00,1,,,Inside,,98
-7911026.54562431,5208426.65261463,N_601230550253965256,Strand Theatre - Internal,Q2KD-4MAV-QUR8,Strand_Camera room office right,"543 Columbia Rd, Boston, MA 02125",42.315958662778,-71.0659605900958, Inside ,2023/06/12 07:56:29+00,1,,,Inside,,99
-7911026.54562431,5208426.65261463,N_601230550253965256,Strand Theatre - Internal,Q2LD-ENHA-3CRX,Strand_F.O.H,"543 Columbia Rd, Boston, MA 02125",42.315958662778,-71.0659605900958, Inside ,2023/06/12 07:56:29+00,1,,,Inside,,100
-7904346.26164797,5218988.75379076,N_601230550253966604,East Boston Senior Center,Q3AB-3PP3-JU4W,EBSC-AP-1,"18 Barnes Avenue, East Boston, MA 02128",42.3860786782013,-71.0059505781137, Inside employee ,2023/06/12 07:56:30+00,1,,,Inside,employee,101
-7904346.26164797,5218988.75379076,N_601230550253966604,East Boston Senior Center,Q3AB-3QKN-ZC2L,EBSC-AP-2,"18 Barnes Avenue, East Boston, MA 02128",42.3860786782013,-71.0059505781137, Inside employee ,2023/06/12 07:56:30+00,1,,,Inside,employee,102
-7904346.26164797,5218988.75379076,N_601230550253966604,East Boston Senior Center,Q3AB-SYXF-PX75,EBSC-AP-3,"18 Barnes Avenue, East Boston, MA 02128",42.3860786782013,-71.0059505781137, Inside employee ,2023/06/12 07:56:30+00,1,,,Inside,employee,103
-7904346.26164797,5218988.75379076,N_601230550253966604,East Boston Senior Center,Q3AB-384Z-M6EA,EBSC-AP-4,"18 Barnes Avenue, East Boston, MA 02128",42.3860786782013,-71.0059505781137, Inside employee ,2023/06/12 07:56:30+00,1,,,Inside,employee,104
-7904346.26164797,5218988.75379076,N_601230550253966604,East Boston Senior Center,Q3AB-4Q4V-8E7P,EBSC-AP-5,"18 Barnes Avenue, East Boston, MA 02128",42.3860786782013,-71.0059505781137, Inside employee ,2023/06/12 07:56:30+00,1,,,Inside,employee,105
-7910156.02735669,5215075.54602041,N_601230550253966673,Downtown Boston - City Hall Plaza and Pavilion,Q3AE-M9YS-PAT8,,"1 City Hall Square, Boston, MA 02201",42.3601086714318,-71.0581405914467, City-Hall ,2023/06/12 07:56:31+00,1,,,,City Hall,106
-7910156.02735669,5215075.54602041,N_601230550253966673,Downtown Boston - City Hall Plaza and Pavilion,Q3AE-JBPL-DSNV,AP-MR86-CS-23,"1 City Hall Plaza, Pavilion
Boston, MA  02201",42.3601086714318,-71.0581405914467, City-Hall ,2023/06/12 07:56:31+00,1,,,,City Hall,107
-7910156.02735669,5215075.54602041,N_601230550253966673,Downtown Boston - City Hall Plaza and Pavilion,Q3AE-A943-FE9F,City Hall Pavilion - Interior AP1,"One City Hall Sq, Pavilion Bldg
Boston, MA 02201",42.3601086714318,-71.0581405914467, City-Hall ,2023/06/12 07:56:31+00,1,,,,City Hall,108
-7910156.02735669,5215075.54602041,N_601230550253966673,Downtown Boston - City Hall Plaza and Pavilion,Q3AE-ZDPZ-2LNE,,"1 City Hall Square, Boston, MA 02201",42.3601086714318,-71.0581405914467, City-Hall ,2023/06/12 07:56:31+00,1,,,,City Hall,109
-7910156.02735669,5215075.54602041,N_601230550253966673,Downtown Boston - City Hall Plaza and Pavilion,Q3AE-BFV5-YGNC,City Hall Pavilion - Interior AP2,"One City Hall Sq, Pavilion Bldg
Boston, MA 02201",42.3601086714318,-71.0581405914467, City-Hall ,2023/06/12 07:56:31+00,1,,,,City Hall,110
-7910156.02735669,5215075.54602041,N_601230550253966673,Downtown Boston - City Hall Plaza and Pavilion,Q3AE-2F27-DVJ3,AP-MR86-CS-14,"1 City Hall Plaza, Pavilion
Boston, MA  02201",42.3601086714318,-71.0581405914467, City-Hall ,2023/06/12 07:56:31+00,1,,,,City Hall,111
-7910156.02735669,5215075.54602041,N_601230550253966673,Downtown Boston - City Hall Plaza and Pavilion,Q3AE-8YNT-BM6Q,AP-MR86-CS-36?,"1 City Hall Plaza, Pavilion
Boston, MA  02201",42.3601086714318,-71.0581405914467, City-Hall ,2023/06/12 07:56:31+00,1,,,,City Hall,112
-7912692.79277099,5207165.74349712,N_579275502070532581,Roxbury,Q2CK-5HAA-H694,ROX-GROVEHALL-AP2,"41 Geneva Ave., Roxbury, MA",42.307582472509,-71.0809287428856, BPL Grove-Hall Outside ,2023/06/12 07:56:14+00,1,BPL,,Outside,Grove Hall,113
-7910156.02735669,5215075.54602041,N_601230550253966673,Downtown Boston - City Hall Plaza and Pavilion,Q3AE-E75T-LLQX,AP-MR86-CS-37,"1 City Hall Plaza, Pavilion
Boston, MA  02201",42.3601086714318,-71.0581405914467, City-Hall ,2023/06/12 07:56:31+00,1,,,,City Hall,114
-7910156.02735669,5215075.54602041,N_601230550253966673,Downtown Boston - City Hall Plaza and Pavilion,Q3AE-95XZ-766Y,,,42.3601086714318,-71.0581405914467, City-Hall ,2023/06/12 07:56:31+00,1,,,,City Hall,115
-7910156.02735669,5215075.54602041,N_601230550253966673,Downtown Boston - City Hall Plaza and Pavilion,Q3AE-A793-TEM9,,"1 City Hall Plaza, Pavilion
Boston, MA  02201",42.3601086714318,-71.0581405914467, City-Hall ,2023/06/12 07:56:31+00,1,,,,City Hall,116
-7910156.02735669,5215075.54602041,N_601230550253966673,Downtown Boston - City Hall Plaza and Pavilion,Q3AE-QMTD-57LD,2nd Floor North Entrance,"1 City Hall Plaza, 
Boston, MA  02201",42.3601086714318,-71.0581405914467, City-Hall ,2023/06/12 07:56:31+00,1,,,,City Hall,117
-7910156.02735669,5215075.54602041,N_601230550253966673,Downtown Boston - City Hall Plaza and Pavilion,Q3AE-R6BQ-D5KN,AP-MR86-CS-27,"1 City Hall Plaza, Pavilion
Boston, MA  02201",42.3601086714318,-71.0581405914467, City-Hall ,2023/06/12 07:56:31+00,1,,,,City Hall,118
-7910156.02735669,5215075.54602041,N_601230550253966673,Downtown Boston - City Hall Plaza and Pavilion,Q3AE-QYJ5-RXEJ,AP-MR86-CS-10,"1 City Hall Square, Boston, MA 02201",42.3601086714318,-71.0581405914467, City-Hall ,2023/06/12 07:56:31+00,1,,,,City Hall,119
-7911206.88338086,5208249.01136844,N_568579452955534204,Dorchester,Q2CK-CRWS-U8UK,DOT-BPL-AP1,"500 Columbia Rd., Dorchester, MA",42.3147786635241,-71.0675805917259, BPL Outside Uphams-Corner-Branch ,2023/06/12 07:56:10+00,1,BPL,,Outside,Uphams Corner Branch,120
-7911206.88338086,5208249.01136844,N_568579452955534204,Dorchester,Q2CK-J2D4-6Y8J,DOT-BPL-AP6,"500 Columbia road, Dorchester, ma",42.3147786635241,-71.0675805917259, BPL Outside Uphams-Corner-Branch ,2023/06/12 07:56:10+00,1,BPL,,Outside,Uphams Corner Branch,121
-7917274.91028733,5199572.72397958,N_568579452955538316,Hyde Park,Q2CK-MJQD-GHYW,HP-BPL-AP1,"35 Harvard Ave., Hyde Park, MA - Roof North",42.2571186525548,-71.1220906048712, BPL Hyde-Park-Branch Outside ,2023/06/12 07:56:12+00,1,BPL,,Outside,Hyde Park Branch,122
-7919012.60875363,5213862.88533179,N_568579452955538703,Alston Brighton,Q2AK-PKLP-V45Q,AB-JACKSON-AP1,"40 Armington St., Allston, MA",42.3520586682847,-71.1377006157859, BPS Jackson-Mann-School Outside ,2023/06/12 07:56:13+00,1,BPS,,Outside,Jackson Mann School,123
-7912222.88106393,5210060.51558676,N_579275502070532581,Roxbury,Q2CK-ZXL4-AYZP,ROX-VINE-AP1,"339 Dudley St, Roxbury",42.3268107188774,-71.0767074541993, recently-added ,2023/06/12 07:56:15+00,1,,,,,124
-7910156.02735669,5215075.54602041,N_601230550253966673,Downtown Boston - City Hall Plaza and Pavilion,Q3AE-EETG-KYUS,AP-MR86-CS-31,"1 City Hall Plaza, Pavilion
Boston, MA  02201",42.3601086714318,-71.0581405914467, City-Hall ,2023/06/12 07:56:31+00,1,,,,City Hall,125
-7910156.02735669,5215075.54602041,N_601230550253966673,Downtown Boston - City Hall Plaza and Pavilion,Q3AE-TF7U-TX4P,AP-MR86-IWF-ROOM,"One City Hall Sq, Pavilion Bld, IWF Room,
Boston, MA 02201",42.3601086714318,-71.0581405914467, City-Hall ,2023/06/12 07:56:31+00,1,,,,City Hall,126
-7910156.02735669,5215075.54602041,N_601230550253966673,Downtown Boston - City Hall Plaza and Pavilion,Q3AE-Q4LQ-6HK3,AP-MR86-CS-09,"1 City Hall Square, Boston, MA 02201",42.3601086714318,-71.0581405914467, City-Hall ,2023/06/12 07:56:31+00,1,,,,City Hall,127
-7910156.02735669,5215075.54602041,N_601230550253966673,Downtown Boston - City Hall Plaza and Pavilion,Q3AE-CANN-4NB2,,"1 City Hall Square, Boston, MA 02201",42.3601086714318,-71.0581405914467, City-Hall ,2023/06/12 07:56:31+00,1,,,,City Hall,128
-7907596.80584202,5210408.59019881,N_601230550253966945,BCYF-Curley,Q3AC-DCVF-HE6K,BCYF-CURLEY-AP7,"1663 Columbia Rd, Boston, MA 02127",42.3291223754466,-71.0351507134259, BCYF Inside UXI employee ,2023/06/12 07:56:32+00,1,BCYF,,Inside,UXI employee,129
-7907596.80584202,5210408.59019881,N_601230550253966945,BCYF-Curley,Q3AC-2A4K-G5SA,BCYF-CURLEY-AP8,"1663 Columbia Rd, Boston, MA 02127",42.3291223754466,-71.0351507134259, BCYF Inside UXI employee ,2023/06/12 07:56:32+00,1,BCYF,,Inside,UXI employee,130
-7907596.80584202,5210408.59019881,N_601230550253966945,BCYF-Curley,Q3AC-96AP-QJ9X,BCYF-CURLEY-AP3,"1663 Columbia Rd, Boston, MA 02127",42.3291223754466,-71.0351507134259, BCYF Inside UXI employee ,2023/06/12 07:56:32+00,1,BCYF,,Inside,UXI employee,131
-7907596.80584202,5210408.59019881,N_601230550253966945,BCYF-Curley,Q3AC-7WRL-ZNXJ,BCYF-CURLEY-AP4,"1663 Columbia Rd, Boston, MA 02127",42.3291223754466,-71.0351507134259, BCYF Inside UXI employee ,2023/06/12 07:56:32+00,1,BCYF,,Inside,UXI employee,132
-7907596.80584202,5210408.59019881,N_601230550253966945,BCYF-Curley,Q3AC-KTSG-GXHF,BCYF-CURLEY-AP2,"1663 Columbia Rd, Boston, MA 02127",42.3291223754466,-71.0351507134259, BCYF Inside UXI employee ,2023/06/12 07:56:32+00,1,BCYF,,Inside,UXI employee,133
-7907596.80584202,5210408.59019881,N_601230550253966945,BCYF-Curley,Q3AC-DSVP-2T8U,BCYF-CURLEY-AP6,"1663 Columbia Rd, Boston, MA 02127",42.3291223754466,-71.0351507134259, BCYF Inside UXI employee ,2023/06/12 07:56:32+00,1,BCYF,,Inside,UXI employee,134
-7907596.80584202,5210408.59019881,N_601230550253966945,BCYF-Curley,Q3AC-QE7Y-PC5R,BCYF-CURLEY-AP5,"1663 Columbia Rd, Boston, MA 02127",42.3291223754466,-71.0351507134259, BCYF Inside UXI employee ,2023/06/12 07:56:32+00,1,BCYF,,Inside,UXI employee,135
,,N_601230550253966945,BCYF-Curley,Q3AK-G3NG-D7KN,CURLEY-MR76-TEST,,,, BCYF Inside UXI employee ,2023/06/12 07:56:32+00,1,BCYF,,Inside,UXI employee,136
-7907596.80584202,5210408.59019881,N_601230550253966945,BCYF-Curley,Q3AK-FBJE-35KU,BCYF-CURLEY-AP11_OutDoor,"1663 Columbia Rd, Boston, MA 02127",42.3291223754466,-71.0351507134259,,2023/06/12 07:56:32+00,1,,,,,137
-7907596.80584202,5210408.59019881,N_601230550253966945,BCYF-Curley,Q3AK-BF9F-PSRG,BCYF-CURLEY-AP9_OutDoor,"1663 Columbia Rd, Boston, MA 02127",42.3291223754466,-71.0351507134259,,2023/06/12 07:56:32+00,1,,,,,138
-7907596.80584202,5210408.59019881,N_601230550253966945,BCYF-Curley,Q3AK-BEXN-TQN3,BCYF-CURLEY-AP12_OutDoor,"1663 Columbia Rd, Boston, MA 02127",42.3291223754466,-71.0351507134259,,2023/06/12 07:56:32+00,1,,,,,139
-7907596.80584202,5210408.59019881,N_601230550253966945,BCYF-Curley,Q3AK-FCMY-RRA3,BCYF-CURLEY-AP10_OutDoor,"1663 Columbia Rd, Boston, MA 02127",42.3291223754466,-71.0351507134259,,2023/06/12 07:56:32+00,1,,,,,140
,,L_601230550253963850,Mobile WiFi Kit 2,Q2ZY-5UCW-5LFZ,MG41-2,,,,,2023/06/12 07:56:35+00,1,,,,,141
,,L_601230550253963850,Mobile WiFi Kit 2,Q3AK-W3JB-ZWJ4,MR76-2,,,,,2023/06/12 07:56:35+00,1,,,,,142
,,L_601230550253963851,Mobile WiFi Kit 3,Q3AK-Q4UV-A3YH,MR76-3,,,,,2023/06/12 07:56:36+00,1,,,,,143
,,L_601230550253963852,Mobile WiFi Kit 4,Q2ZY-UMFL-3SV4,MG41-4,,,,,2023/06/12 07:56:37+00,1,,,,,144
,,L_601230550253963852,Mobile WiFi Kit 4,Q3AK-VU6H-QY3R,MR76-4,,,,,2023/06/12 07:56:37+00,1,,,,,145
,,L_601230550253963853,Mobile WiFi Kit 5,Q2ZY-CKEJ-LDAC,MG41-5,,,,,2023/06/12 07:56:37+00,1,,,,,146
,,L_601230550253963853,Mobile WiFi Kit 5,Q3AK-VPCA-XAXA,MR76-5,,,,,2023/06/12 07:56:37+00,1,,,,,147
-7911615.9085629,5209958.63518912,N_579275502070532581,Roxbury,Q2CK-HM2N-KPSM,ROX-MASON-AP2,"150 Norfolk Ave., Roxbury, MA",42.3261340878442,-71.071254927452, recently-added ,2023/06/12 07:56:14+00,1,,,,,148
-7912356.6389058,5210582.18137717,N_579275502070532581,Roxbury,Q2CK-ZWAD-LVEM,ROX-ORCHARD-AP1,"906 Albany St., Roxbury, MA",42.330275209131,-71.0779090213365, BPS Orchard-Garden-School Outside ,2023/06/12 07:56:14+00,1,BPS,,Outside,Orchard Garden School,149
-7914566.17244166,5208795.9466497,N_579275502070532581,Roxbury,Q2CK-CX6Z-DWFB,,"1870 Columbus Ave., Roxbury, MA",42.3184116635137,-71.0977575987968, BFD Engine-42 Outside ,2023/06/12 07:56:14+00,1,BFD,,Outside,Engine 42,150
-7912222.88106393,5210060.51558676,N_579275502070532581,Roxbury,Q2CK-MP2Y-FAUQ,ROX-VINE-AP2,"339 Dudley St, Roxbury",42.3268107188774,-71.0767074541993, recently-added ,2023/06/12 07:56:15+00,1,,,,,151
-7913316.02232867,5208591.87886588,N_579275502070532581,Roxbury,Q2CK-DFHP-VUSX,ROX-BLA-AP3,"Humbolt & Townsend St., Roxbury, MA",42.3170561743609,-71.0865273092574, BPS Boston-Latin-Academy Outside ,2023/06/12 07:56:15+00,1,BPS,,Outside,Boston Latin Academy,152
-7913182.0476023,5208488.81695132,N_579275502070532581,Roxbury,Q2CK-FSAF-7UZR,ROX-BLA-AP1,"205 Townsend St., Roxbury, MA - west side of roof",42.316371590204,-71.0853237938136, BPS Boston-Latin-Academy Outside ,2023/06/12 07:56:15+00,1,BPS,,Outside,Boston Latin Academy,153
-7912303.28873202,5210199.43720343,N_579275502070532581,Roxbury,Q2CK-5FW6-RS9C,ROX-VINE-AP5,"Dudley and Adams St., Roxbury, MA",42.3277333446658,-71.0774297685712, BCYF/BPL Outside Vine-St-Comm-Center recently-added ,2023/06/12 07:56:15+00,1,BCYF,BPL,Outside,Vine St Comm Center,154
-7913221.0245258,5210306.24979136,N_579275502070532581,Roxbury,Q2CK-NPJ9-EDSZ,ROX-BPDB2-AP3,"2400 Washington St., Roxbury, MA - Left Side Facing Bartlett St",42.3284427142527,-71.0856739294746, BPD District-B-2 Outside ,2023/06/12 07:56:15+00,1,BPD,,Outside,District B 2,155
-7910560.10607368,5206144.54977923,N_568579452955534204,Dorchester,Q2CK-L5SX-NBNQ,DOT-CLEVELAND-AP1,"11 Charles St, Dorchester",42.3007978891716,-71.0617704923213, recently-added ,2023/06/12 07:56:10+00,1,,,,,156
-7917511.80329518,5199475.67604279,N_568579452955538316,Hyde Park,Q2CK-ZJFC-GBK2,HP-BPDE18-AP1,"1249 Hyde Park Ave., Hyde Park, MA",42.2564734025513,-71.1242186509677, BPD District-E-18 Outside ,2023/06/12 07:56:12+00,1,BPD,,Outside,District E 18,157
-7917162.58315696,5199450.64016957,N_568579452955538316,Hyde Park,Q3AK-D639-ZQ76,HP-BCYF-AP2,"1179 River Street, Hyde Park, MA02136",42.2563069435643,-71.1210815530909,,2023/06/12 07:56:12+00,1,,,,,158
-7912341.08227608,5209015.91251964,N_579275502070532581,Roxbury,Q2CK-6JQN-FZR8,ROX-WINTHROP-AP4,"Waverley & Blue Hill Ave., Roxbury, MA",42.3198727205825,-71.0777692737539, BPS Outside Winthrop-School ,2023/06/12 07:56:14+00,1,BPS,,Outside,Winthrop School,159
-7912857.67341424,5210362.52176549,N_579275502070532581,Roxbury,Q2CK-SDQD-U3MQ,ROX-BFDE14-AP1,"174 Dudley St., Roxbury, MA - Rear Roof Facing Palmer Street",42.3288164275404,-71.0824098909045, BFD Engine-14 Outside ,2023/06/12 07:56:14+00,1,BFD,,Outside,Engine 14,160
-7912130.19870111,5208731.0417138,N_579275502070532581,Roxbury,Q2CK-5S3K-8KFF,ROX-WINTHROP-AP3,"35 Brookford St., Roxbury, MA",42.3179805455354,-71.0758748743683, BPS Outside Winthrop-School ,2023/06/12 07:56:15+00,1,BPS,,Outside,Winthrop School,161
-7913221.0245258,5210306.24979136,N_579275502070532581,Roxbury,Q2CK-NQHH-62DH,ROX-BPDB2-AP2,"2400 Washington St., Roxbury, MA - Left Side Rear Roof Facing Dudley & Washington",42.3284427142527,-71.0856739294746, BPD District-B-2 Outside ,2023/06/12 07:56:15+00,1,BPD,,Outside,District B 2,162
-7914608.80797745,5210874.83016337,N_579275502070532581,Roxbury,Q2CK-SARQ-LX6F,ROX-Tobin-BCYF-AP1,"1481 Tremont St, Roxbury Crossing, MA 02120",42.332218666615,-71.0981406003313, BCYF BCYF-Grant Outdoor Tobin-Comm-Center ,2023/06/12 07:56:15+00,1,BCYF,,,Tobin Comm Center,163
-7912845.81611863,5210316.93276757,N_579275502070532581,Roxbury,Q2CK-SF4S-8JL2,ROX-BFDE14-AP3,On pole across from BFD Engine 14,42.3285136621772,-71.0823033750057, BFD Engine-14 Outside ,2023/06/12 07:56:15+00,1,BFD,,Outside,Engine 14,164
-7912078.0921556,5207387.69729827,N_579275502070532581,Roxbury,Q2CK-74V2-BS4Q,ROX-FREDERICK-AP1,"270 Columbia Rd., Dorchester, MA",42.309056987344,-71.075406793306, BPS Frederick-Pilot-School Outside ,2023/06/12 07:56:15+00,1,BPS,,Outside,Frederick Pilot School,165
-7912096.76216658,5208718.80451134,N_579275502070532581,Roxbury,Q2CK-6B8Q-V8DD,ROX-WINTHROP-AP2,"35 Brookford St., Roxbury, MA",42.3178992620491,-71.0755745088682, BPS Outside Winthrop-School ,2023/06/12 07:56:15+00,1,BPS,,Outside,Winthrop School,166
-7912348.44959097,5208774.26742057,N_579275502070532581,Roxbury,Q2CK-7AFY-YUJ9,ROX-WINTHROP-AP5,"Woodbine and Blue Hill Ave., Roxbury, MA",42.3182676639245,-71.0778354554697, BPS Outside Winthrop-School ,2023/06/12 07:56:15+00,1,BPS,,Outside,Winthrop School,167
-7912772.09617308,5207056.91195012,N_579275502070532581,Roxbury,Q2CK-NFVJ-3N86,ROX-BURKE-AP1,"60 Washington St.
Dorchester, MA 02121",42.3068594547874,-71.0816411374674, BPS Jeremiah-Burke-School Outside ,2023/06/12 07:56:15+00,1,BPS,,Outside,Jeremiah Burke School,168
-7912724.10216974,5207209.02364349,N_579275502070532581,Roxbury,Q2CK-LP79-KBBG,ROX-GROVEHALL-AP1,"41 Geneva Ave, Roxbury",42.30787,-71.08121, recently-added ,2023/06/12 07:56:15+00,1,,,,,169
-7912772.09617308,5207056.91195012,N_579275502070532581,Roxbury,Q2CK-NNVA-2639,ROX-BURKE-AP2,"60 Washington St.
Dorchester, MA 02121",42.3068594547874,-71.0816411374674, BPS Jeremiah-Burke-School Outside ,2023/06/12 07:56:15+00,1,BPS,,Outside,Jeremiah Burke School,170
-7913532.85362677,5208219.3978872,N_579275502070532581,Roxbury,Q2CK-BF8L-TU5P,ROX-TROTTER-AP2,"Humbolt & Waumbeck St., Roxbury, MA",42.3145819509434,-71.088475137949, BPS Outside Trotter-School ,2023/06/12 07:56:15+00,1,BPS,,Outside,Trotter School,171
-7914566.17244166,5208795.9466497,N_579275502070532581,Roxbury,Q2CK-BX25-DLJ2,BFD-E42-AP2,"1870 Columbus Ave., Roxbury, MA",42.3184116635137,-71.0977575987968, BFD Engine-42 Outside recently-added ,2023/06/12 07:56:15+00,1,BFD,,Outside,Engine 42,172
-7917190.86400906,5199598.44308613,N_568579452955538316,Hyde Park,Q2AK-GPHE-YSR2,HP-CENTRAL-AP1,"26 Central Ave., Hyde Park, MA",42.2572896520292,-71.1213356043077, BPHC Hyde-Park Outside ,2023/06/12 07:56:12+00,1,,,Outside,Hyde Park,173
-7917028.89413752,5199273.42372437,N_568579452955538316,Hyde Park,Q2AK-YCNF-9V29,HP-BFD48-AP1,"60 Fairmont Ave., Hyde Park, MA",42.2551286509519,-71.1198806041961, BFD Engine-48 Outside ,2023/06/12 07:56:12+00,1,BFD,,Outside,Engine 48,174
-7917521.57100408,5199367.78998436,N_568579452955538316,Hyde Park,Q2CK-BUXF-V896,HP-BPDE18-AP3,"1276 River St., Hyde Park, MA - Hyde Park Ave & River St",42.2557560845543,-71.1243063957897, BPD District E-18 Outside ,2023/06/12 07:56:12+00,1,BPD,,Outside,E 18,175
-7917274.91028733,5199572.72397958,N_568579452955538316,Hyde Park,Q2CK-53BW-3TB9,HP-BPL-AP2,"35 Harvard Ave., Hyde Park, MA - Roof South",42.2571186525548,-71.1220906048712, BPL Hyde-Park-Branch Outside ,2023/06/12 07:56:12+00,1,BPL,,Outside,Hyde Park Branch,176
-7918256.51388294,5198613.28987428,N_568579452955538316,Hyde Park,Q2CK-TSDP-WCWR,HP-BPDE18-AP4,"Corner of Business & River St, Hyde Park MA",42.2507393,-71.1309085, BPD District E-18 Outside ,2023/06/12 07:56:12+00,1,BPD,,Outside,E 18,177
-7917162.58315696,5199450.64016957,N_568579452955538316,Hyde Park,Q3AK-EQZ5-MHCW,HP-BCYF-AP1,"1179 River Street, Hyde Park, MA02136",42.2563069435643,-71.1210815530909,,2023/06/12 07:56:12+00,1,,,,,178
-7922403.4012907,5213746.74922485,N_568579452955538703,Alston Brighton,Q2AK-HEMW-CKJN,AB-OAKSQUARE-AP1,"425 Faneuil St., Brighton, MA",42.3512876680804,-71.1681606233992, BFD Engine-51 Outside ,2023/06/12 07:56:13+00,1,BFD,,Outside,Engine 51,179
-7919879.78750683,5213415.52069041,N_568579452955538703,Alston Brighton,Q2CK-SA2P-MX2R,AB-BRIGHTON-HIGH-AP3,"25 Warren St, Brighton, MA 02135",42.3490886680621,-71.1454906150665, BCYF-Grant BPS Brighton-High-School Outside ,2023/06/12 07:56:13+00,1,,,Outside,Brighton High School,180
-7919879.78750683,5213415.52069041,N_568579452955538703,Alston Brighton,Q2CK-SRAD-M7DC,AB-BRIGHTON-HIGH-AP1,"25 Warren St, Brighton, MA 02135",42.3490886680621,-71.1454906150665, BCYF-Grant BPS Brighton-High-School Outside ,2023/06/12 07:56:13+00,1,,,Outside,Brighton High School,181
-7918838.05951106,5214129.05470372,N_568579452955538703,Alston Brighton,Q2CK-LVPP-KFQ4,AB-BFDE41-AP1,"460 Cambridge St

Boston, MA 02134",42.3538256682487,-71.1361326132616, recently-added ,2023/06/12 07:56:13+00,1,,,,,182
-7912184.17675392,5207699.96293284,N_579275502070532581,Roxbury,Q2CK-6FWU-5RHA,ROX-MLKSCHOOL-AP1,"77 Lawrence Ave., Roxbury, MA",42.3111314160251,-71.0763597674668, BPS MLK Outside ,2023/06/12 07:56:14+00,1,BPS,,Outside,MLK,183
-7912078.0921556,5207387.69729827,N_579275502070532581,Roxbury,Q2CK-FC84-AQTJ,ROX-FREDERICK-AP2,"270 Columbia Rd., Dorchester, MA",42.309056987344,-71.075406793306, BPS Frederick-Pilot-School Outside ,2023/06/12 07:56:14+00,1,BPS,,Outside,Frederick Pilot School,184
-7912897.72042516,5207333.97353993,N_579275502070532581,Roxbury,Q2CK-649T-2WQZ,ROX-GROVEHALL-AP7,"476 Blue Hill Ave., Roxbury, MA",42.3087000852543,-71.0827696393244, BPL Grove-Hall Outside ,2023/06/12 07:56:14+00,1,BPL,,Outside,Grove Hall,185
-7913221.0245258,5210306.24979136,N_579275502070532581,Roxbury,Q2CK-NU67-LP8V,ROX-BPDB2-AP1,"2400 Washington St., Roxbury, MA - Right Front Side Roof Facing Dudley MBTA",42.3284427142527,-71.0856739294746, BPD District-B-2 Outside ,2023/06/12 07:56:14+00,1,BPD,,Outside,District B 2,186
-7914566.17244166,5208795.9466497,N_579275502070532581,Roxbury,Q2CK-XD4N-QHUN,BFD-E42-AP1,"1870 Columbus Ave., Roxbury, MA",42.3184116635137,-71.0977575987968, BFD Engine-42 Outside recently-added ,2023/06/12 07:56:14+00,1,BFD,,Outside,Engine 42,187
-7912857.67341424,5210362.52176549,N_579275502070532581,Roxbury,Q2CK-MR56-4QY6,ROX-BFDE14-AP2,"174 Dudley St., Roxbury, MA - Front Roof Facing Dudley St",42.3288164275404,-71.0824098909045, BFD Engine-14 Outside ,2023/06/12 07:56:14+00,1,BFD,,Outside,Engine 14,188
-7912178.21444178,5207676.67352578,N_579275502070532581,Roxbury,Q2CK-5W3E-RVCM,ROX-MLKSCHOOL-AP3,"77 Lawrence Ave., Roxbury, MA",42.3109767032681,-71.0763062071055, BPS MLK Outside ,2023/06/12 07:56:14+00,1,BPS,,Outside,MLK,189
-7911615.9085629,5209958.63518912,N_579275502070532581,Roxbury,Q2CK-F2BB-S6RY,ROX-MASON-AP1,"150 Norfolk Ave., Roxbury, MA",42.3261340878442,-71.071254927452, recently-added ,2023/06/12 07:56:14+00,1,,,,,190
-7911905.79471037,5206870.06566328,N_568579452955534204,Dorchester,Q2CK-ERFW-VHQX,DOT-HOLLAND-AP2,"85 Olney St., Dorchester, MA",42.3056181301162,-71.0738590190213, BCYF Holland-Comm-Center Outside ,2023/06/12 07:56:10+00,1,BCYF,,Outside,Holland Comm Center,191
-7911206.88338086,5208249.01136844,N_568579452955534204,Dorchester,Q2CK-CVPA-TEUV,DOT-BPL-AP2,"500 Columbia Rd., Dorchester, MA",42.3147786635241,-71.0675805917259, BPL Outside Uphams-Corner-Branch ,2023/06/12 07:56:10+00,1,BPL,,Outside,Uphams Corner Branch,192
-7911206.88338086,5208249.01136844,N_568579452955534204,Dorchester,Q2CK-U4G7-7P78,DOT-BPL-AP4,"500 Columbia Rd., Dorchester, MA",42.3147786635241,-71.0675805917259, BPL Outside Uphams-Corner-Branch recently-added ,2023/06/12 07:56:10+00,1,BPL,,Outside,Uphams Corner Branch,193
-7912662.29697881,5205506.83478198,N_568579452955534204,Dorchester,Q2CK-HALC-MWBH,DOT-GREENWOOD-AP1,"189 Glenway St., Dorchester, MA",42.2965606820921,-71.0806547945235, BPS Greenwood-School Outside ,2023/06/12 07:56:10+00,1,BPS,,Outside,Greenwood School,194
-7911206.88338086,5208249.01136844,N_568579452955534204,Dorchester,Q2CK-CXHG-U3Q7,DOT-BPL-AP3,"500 Columbia Rd., Dorchester, MA",42.3147786635241,-71.0675805917259, BPL Outside Uphams-Corner-Branch ,2023/06/12 07:56:10+00,1,BPL,,Outside,Uphams Corner Branch,195
-7911344.9198002,5207976.53404644,N_568579452955534204,Dorchester,Q2CK-FQLH-FDJH,DOT-BPL-AP5,"63 Glendale St, Dorchester, MA",42.3129686634185,-71.0688205939785, BPL Outside Uphams-Corner-Branch ,2023/06/12 07:56:10+00,1,BPL,,Outside,Uphams Corner Branch,196
-7911607.07759896,5206605.34951248,N_568579452955534204,Dorchester,Q2CK-N5NK-M8VH,DOT-MATHER-AP2,"1 Meeting House Hill, Dorchester",42.303859430364,-71.0711755975533, recently-added ,2023/06/12 07:56:10+00,1,,,,,197
-7907045.55513843,5210860.08811236,N_568579452955537848,South Boston,Q2CK-LL7D-DRFS,SB-PERRY-AP2,"745 East 7th St., South Boston, MA",42.3321207672545,-71.0301987441018, BPS Outside Perry-School ,2023/06/12 07:56:11+00,1,BPS,,Outside,Perry School,198
-7907045.55513843,5210860.08811236,N_568579452955537848,South Boston,Q2CK-L6R4-HJGB,SB-PERRY-AP1,"745 E 7th St, South Boston, MA 02127",42.3321207672545,-71.0301987441018, recently-added ,2023/06/12 07:56:11+00,1,,,,,199
-7907045.55513843,5210860.08811236,N_568579452955537848,South Boston,Q2CK-NLQZ-E2SP,SB-PERRY-AP3,"745 E 7th St, South Boston, MA 02127",42.3321207672545,-71.0301987441018, BPS Outside Perry-School ,2023/06/12 07:56:11+00,1,BPS,,Outside,Perry School,200
-7908681.04359801,5210972.71024671,N_568579452955537848,South Boston,Q2CK-D4R6-5UWB,SB-HIGHSCHOOL-AP3,"95 G St., South Boston, MA",42.3328686671197,-71.0448905869042, Outside South-Boston-High-School ,2023/06/12 07:56:11+00,1,,,Outside,South Boston High School,201
-7910482.19379852,5218090.54673119,N_568579452955538062,Charlestown,Q2CK-V3LS-5V65,CHL-BCYF-AP2,"240 Medford St, Charlestown, MA 02129",42.3801186758107,-71.0610705944453, BCYF BCYF-Grant Charlestown-Athletic-Building Outside ,2023/06/12 07:56:11+00,1,BCYF,,Outside,Charlestown Athletic Building,202
-7910482.19379852,5218090.54673119,N_568579452955538062,Charlestown,Q2CK-SNTB-WJWA,CHL-HIGHSCHOOL-AP2,"240 Medford St, Charlestown, MA 02129",42.3801186758107,-71.0610705944453, BCYF-Grant BPS Charlestown-High-School Outside ,2023/06/12 07:56:11+00,1,,,Outside,Charlestown High School,203
-7910482.19379852,5218090.54673119,N_568579452955538062,Charlestown,Q2CK-CWUY-RBGW,CHL-HIGHSCHOOL-AP1,"240 Medford St., Charlestown, MA",42.3801186758107,-71.0610705944453, BPS Charlestown-High-School Outside ,2023/06/12 07:56:11+00,1,BPS,,Outside,Charlestown High School,204
-7917084.04134615,5199005.76863077,N_568579452955538316,Hyde Park,Q2AK-MNV6-RH2P,HP-MAPLE-AP1,"Maple St., Hyde Park, MA - between Oak and River St.",42.253349,-71.120376, Hyde-Park Outside ,2023/06/12 07:56:12+00,1,,,Outside,Hyde Park,205
-7917028.89413752,5199273.42372437,N_568579452955538316,Hyde Park,Q2CK-4SHS-VJAG,HP-BFD48-AP2,"60 Fairmont Ave., Hyde Park, MA",42.2551286509519,-71.1198806041961, BFD Engine-48 Outside ,2023/06/12 07:56:12+00,1,BFD,,Outside,Engine 48,206
-7914741.27809876,5208917.44177196,N_579275502070532581,Roxbury,Q2CK-GUWZ-2YNU,ROX-BRAGDON-AP1,"85 Bragdon St., Roxbury MA",42.3192186624804,-71.0993305996779, EOC Outside ,2023/06/12 07:56:14+00,1,,,Outside,EOC,207
-7912099.62872001,5205541.1211244,N_568579452955534204,Dorchester,Q2CK-9ECJ-KEVB,DOT-HOLMES-AP2,"40 School St, Dorchester",42.2967885000962,-71.0756002595557, BPS Holmes-Elementary-School Outside ,2023/06/12 07:56:10+00,1,BPS,,Outside,Holmes Elementary School,208
-7912099.62872001,5205541.1211244,N_568579452955534204,Dorchester,Q2CK-H64X-BT93,DOT-HOLMES-AP1,"40 School St., Dorchester, MA",42.2967885000962,-71.0756002595557, BPS Holmes-Elementary-School Outside ,2023/06/12 07:56:10+00,1,BPS,,Outside,Holmes Elementary School,209
-7911607.53118285,5205990.83337966,N_568579452955534204,Dorchester,Q2CK-649C-9H26,DOT-MARSHALL-AP1,"35 Westville St., Dorchester, MA",42.2997765683813,-71.0711796721667, BPS Marshall-School Outside UP-Academy ,2023/06/12 07:56:10+00,1,BPS,,Outside,Marshall School UP Academy,210
-7912662.29697881,5205506.83478198,N_568579452955534204,Dorchester,Q2CK-HPSU-2K3Q,DOT-GREENWOOD-AP2,"189 Glenway Street, Dorchester, MA",42.2965606820921,-71.0806547945235, BPS Greenwood-School Outside ,2023/06/12 07:56:10+00,1,BPS,,Outside,Greenwood School,211
-7908681.04359801,5210972.71024671,N_568579452955537848,South Boston,Q2CK-LQCX-HR7J,SB-HIGHSCHOOL-AP1,95 G Street,42.3328686671197,-71.0448905869042, recently-added ,2023/06/12 07:56:11+00,1,,,,,212
-7919879.78750683,5213415.52069041,N_568579452955538703,Alston Brighton,Q2CK-SVB3-JPWM,AB-BRIGHTON-HIGH-AP2,"25 Warren St, Brighton, MA 02135",42.3490886680621,-71.1454906150665, BCYF-Grant BPS Brighton-High-School Outside ,2023/06/12 07:56:13+00,1,,,Outside,Brighton High School,213
-7912905.4304883,5207508.75493876,N_579275502070532581,Roxbury,Q2CK-CYFR-SFMF,ROX-GROVEHALL-AP4,"683 Warren St., Roxbury, MA",42.3098612,-71.0828389, BPL Grove-Hall Outside ,2023/06/12 07:56:15+00,1,BPL,,Outside,Grove Hall,214
-7912508.81048186,5210323.61847167,N_579275502070532581,Roxbury,Q2CK-NF7G-GS7K,ROX-BFDE14-AP4,"Dudley St and Mt Pleasant Ave., Roxbury, MA",42.3285580633239,-71.0792760018623, BFD Engine-14 Outside ,2023/06/12 07:56:15+00,1,BFD,,Outside,Engine 14,215
-7908004.05860206,5216720.37125784,N_601230550253961436,East Boston,Q2CK-N6MC-XFPQ,EB-BPDA7-AP3,"69 Paris Street, East Boston",42.3710258637724,-71.0388091272144, recently-added ,2023/06/12 07:56:19+00,1,,,,,216
-7914605.21138883,5210859.71777849,N_601230550253961587,BCYF Tremont,Q2FD-6DML-BCZE,BCYF-CC Lobby,"1483 Tremont St Boston, MA",42.3321183079306,-71.098108291626, BCYF Inside employee ,2023/06/12 07:56:21+00,1,BCYF,,Inside,employee,217
-7913484.52064257,5208319.26894827,N_579275502070532581,Roxbury,Q2CK-H5VS-5UKS,ROX-TROTTER-AP1,"135 Humboldt Ave., Roxbury, MA",42.3152453589757,-71.0880409553647, BPS Outside Trotter-School ,2023/06/12 07:56:15+00,1,BPS,,Outside,Trotter School,218
-7911796.87684114,5209566.34663052,N_579275502070532581,Roxbury,Q2CK-NM86-CUTL,ROX-EMERSON-AP2,"6 SHIRLEY ST
 ROXBURY, MA 02119",42.3235286647916,-71.0728805931549, recently-added ,2023/06/12 07:56:15+00,1,,,,,219
-7910139.01971269,5215081.66926267,N_601230550253961310,Downtown Boston - City Hall - Quincy Market,Q3AE-4FLA-SJCJ,DT-Beer garden 2- higher level of beer garden,One City Hall Sq  Boston MA 02201,42.3601493167228,-71.0579878091812,,2023/06/12 07:56:17+00,1,,,,,220
-7914627.9036316,5210877.63270699,N_601230550253961587,BCYF Tremont,Q2CK-UTKT-YZ7P,BCYF-3rd FL Easter Island,"1483 Tremont St, Boston, MA",42.3322372777957,-71.0983121395111, BCYF Inside employee ,2023/06/12 07:56:21+00,1,BCYF,,Inside,employee,221
-7912997.17250358,5210563.16541154,N_601230550253961809,Bolling,Q2FD-3Q7F-9C4J,BOL-FOYER-AP1,"2300 Washington St., Roxbury 02119",42.3301489235268,-71.0836630325452, Bolling CoB-Employee Inside ,2023/06/12 07:56:22+00,1,,,Inside,CoB Employee,222
-7912229.84363062,5210048.36168032,N_601230550253962329,BCYF Indoor,Q2LD-54N8-9YC9,BCYF-Vine Street-Senior Room 222 AP2,"339 Dudley Street. Boston, MA",42.32673,-71.07677,,2023/06/12 07:56:24+00,1,,,,,223
-7908004.05860206,5216720.37125784,N_601230550253961436,East Boston,Q2CK-L58U-SANP,EB-BPDA7-AP2,"69 Paris Street, East Boston",42.3710258637724,-71.0388091272144, recently-added ,2023/06/12 07:56:19+00,1,,,,,224
-7908004.05860206,5216720.37125784,N_601230550253961436,East Boston,Q2CK-ZYHQ-FVKG,EB-BPDA7-AP1,"69 Paris Street, East Boston",42.3710258637724,-71.0388091272144, BPD District-A-7 E-Boston-Main-Street Outside ,2023/06/12 07:56:19+00,1,BPD,,Outside,District A 7 E Boston Main Street,225
-7907934.08964348,5216909.14299728,N_601230550253961436,East Boston,Q2CK-NPNU-ZQAD,EB-10GOVE-AP1,"10 Gove St, Boston, MA 02128, USA",42.3722786763649,-71.0381805853654, E-Boston-Main-Street June2016 Outside Private-residence ,2023/06/12 07:56:19+00,1,,,Outside,E Boston Main Street Private residence,226
-7910482.19379852,5218090.54673119,N_601230550253962329,BCYF Indoor,Q2JD-VTCK-Y2SH,BCYF-Charlestown-AP2,"240 Medford St., Charlestown, MA - Admin office",42.3801186758107,-71.0610705944453, BCYF BCYF-Grant Charlestown Inside ,2023/06/12 07:56:24+00,1,BCYF,,Inside,Charlestown,227
-7912229.84363062,5210048.36168032,N_601230550253962329,BCYF Indoor,Q2LD-6MR4-Y7UM,BCYF-Vine Street-Room 107,"339 Dudley Street. Boston, MA",42.32673,-71.07677,,2023/06/12 07:56:24+00,1,,,,,228
-7916494.62373062,5207354.5853439,N_601230550253962845,Jamaica Plain,Q2CK-SPCX-L9G6,JP-Curtis Hall-BCYF-AP1,"20 South St, Jamaica Plain, MA 02130",42.3088370155248,-71.1150811714723, BCYF BCYF-Grant Curtis-Hall Outside ,2023/06/12 07:56:25+00,1,BCYF,,Outside,Curtis Hall,229
-7916494.62373062,5207354.5853439,N_601230550253962329,BCYF Indoor,Q2JD-XRZM-K84X,BCYF-Curtis-Hall-AP3,"20 South Street, Jamaica Plain, MA - Room 108 supervisor",42.3088370155248,-71.1150811714723, BCYF BCYF-Grant Curtis Inside Jamaica-Plain ,2023/06/12 07:56:24+00,1,BCYF,,Inside,Jamaica Plain,230
-7909613.51514324,5217120.98529075,L_601230550253962688,Navy Yard,Q2EK-R989-H6FG,NavyYard-AP3,Navy yard Cambridge,42.3736845704699,-71.053267121315,,2023/06/12 07:56:27+00,1,,,,,231
-7912918.97793197,5210706.17756294,N_601230550253966449,OPAT,Q3AC-ZNTZ-AXMN,OPAT-AP2,2201 Washington St Roxbury MA 02118,42.3310986653424,-71.0829605987571,,2023/06/12 07:56:29+00,1,,,,,232
-7910156.02735669,5215075.54602041,N_601230550253966673,Downtown Boston - City Hall Plaza and Pavilion,Q3AE-JXU4-QPQ3,,"1 City Hall Square, Boston, MA 02201",42.3601086714318,-71.0581405914467, City-Hall ,2023/06/12 07:56:31+00,1,,,,City Hall,233
,,L_601230550253963849,Mobile WiFi Kit 1,Q2ZY-RF99-YN45,MG41-1,,,,,2023/06/12 07:56:34+00,1,,,,,234
-7911026.54562431,5208426.65261463,N_601230550253965255,Strand Theatre - External,Q2QD-428C-NVTB,Strand_Centered above external set of doors,"543 Columbia Road Boston, MA 02125",42.315958662778,-71.0659605900958, Outside ,2023/06/12 07:56:28+00,1,,,Outside,,235
-7912918.97793197,5210706.17756294,N_601230550253966449,OPAT,Q3AC-GXG6-6WZR,OPAT-AP1,2201 Washington St Roxbury MA 02118,42.3310986653424,-71.0829605987571,,2023/06/12 07:56:29+00,1,,,,,236
-7910156.02735669,5215075.54602041,N_601230550253966673,Downtown Boston - City Hall Plaza and Pavilion,Q3AE-M6TA-MFWJ,,,42.3601086714318,-71.0581405914467, City-Hall ,2023/06/12 07:56:31+00,1,,,,City Hall,237
-7907596.80584202,5210408.59019881,N_601230550253966945,BCYF-Curley,Q3AC-RKPB-2QNG,BCYF-CURLEY-AP1,"1663 Columbia Rd, Boston, MA 02127",42.3291223754466,-71.0351507134259, BCYF Inside UXI employee ,2023/06/12 07:56:32+00,1,BCYF,,Inside,UXI employee,238
,,L_601230550253963849,Mobile WiFi Kit 1,Q3AK-SUL7-7FC4,MR76-1,,,,,2023/06/12 07:56:34+00,1,,,,,239
,,L_601230550253963851,Mobile WiFi Kit 3,Q2ZY-V6UL-X52X,MG41-3,,,,,2023/06/12 07:56:36+00,1,,,,,240
-7910156.02735669,5215075.54602041,N_601230550253966673,Downtown Boston - City Hall Plaza and Pavilion,Q3AE-2N4M-BWUD,,,42.3601086714318,-71.0581405914467, City-Hall ,2023/06/12 07:56:31+00,1,,,,City Hall,241
-7910156.02735669,5215075.54602041,N_601230550253966673,Downtown Boston - City Hall Plaza and Pavilion,Q3AE-WU87-WVGK,3rd Floor Lobby Entrance,"1 City Hall Plaza, 
Boston, MA  02201",42.3601086714318,-71.0581405914467, City-Hall ,2023/06/12 07:56:31+00,1,,,,City Hall,242
-7916707.22966667,5202882.20011551,N_568579452955527921,Parks,Q2AK-U4TT-J95L,PARKS-MTHOPE-AP1,"Mt Hope Cemetery, Hyde Park, MA - Cummings Hwy & Canterbury St",42.2791186669152,-71.1169910430908, Mount-Hope-Cemetery Outside ,2023/06/12 07:56:09+00,1,,,Outside,Mount Hope Cemetery,243
-7913307.48293078,5209515.15517897,N_568579452955527921,Parks,Q2AK-ZBZB-FW8M,PARKS-FRANKLIN-AP1,"1 Circuit Dr., Roxbury, MA",42.3231886637714,-71.086450598541, Franklin-Park Outside ,2023/06/12 07:56:09+00,1,,,Outside,Franklin Park,244
-7913307.48293078,5209515.15517897,N_568579452955527921,Parks,Q2DD-4KWV-JRMB,PARKS-FRANKLIN-AP2,"1 Circuit Dr., Roxbury, MA",42.3231886637714,-71.086450598541, Franklin-Park Outside ,2023/06/12 07:56:09+00,1,,,Outside,Franklin Park,245
-7916761.50238065,5208414.63544093,N_568579452955527921,Parks,Q2CD-6YGF-H7PW,PARKS-JAMAICAPOND-AP3,"507 Jamaicaway, Jamaica Plain, MA - inside boat house",42.3158788382307,-71.1174785831756, Jamaica-Pond Outside ,2023/06/12 07:56:09+00,1,,,Outside,Jamaica Pond,246
-7916761.50238065,5208414.63544093,N_568579452955527921,Parks,Q2CK-7ANU-RF72,PARKS-JAMAICAPOND-AP1,"507 Jamaicaway, Jamaica Plain, MA - boat house",42.3158788382307,-71.1174785831756, Jamaica-Pond Outside ,2023/06/12 07:56:09+00,1,,,Outside,Jamaica Pond,247
-7910789.06630099,5214371.55607318,N_568579452955527921,Parks,Q2CK-N8A5-VD4F,PARKS-COMMONWEST-AP3,"139 Tremont St, Boston, MA 02111",42.3554355018542,-71.0638272770378, recently-added ,2023/06/12 07:56:09+00,1,,,,,248
-7910789.06630099,5214371.55607318,N_568579452955527921,Parks,Q2CK-NK2U-62SL,PARKS-COMMONEAST-AP2,"139 Tremont St, Boston, MA 02111",42.3554355018542,-71.0638272770378, Boston-Common ,2023/06/12 07:56:09+00,1,,,,Boston Common,249
-7910789.06630099,5214371.55607318,N_568579452955527921,Parks,Q2CK-L3KB-8LWG,PARKS-COMMONWEST-AP4,"139 Tremont St, Boston, MA 02111",42.3554355018542,-71.0638272770378, recently-added ,2023/06/12 07:56:09+00,1,,,,,250
-7916761.50238065,5208414.63544093,N_568579452955527921,Parks,Q2CK-7CSR-NUQK,PARKS-JAMAICAPOND-AP2,"507 Jamaicaway, Jamaica Plain, MA - bandstand",42.3158788382307,-71.1174785831756, Jamaica-Pond Outside ,2023/06/12 07:56:09+00,1,,,Outside,Jamaica Pond,251
-7910789.06630099,5214371.55607318,N_568579452955527921,Parks,Q2EK-WDLM-65C6,PARKS-COMMONEAST-AP4 ,"139 Tremont St, Boston, MA 02111",42.3554355018542,-71.0638272770378, Boston-Common ,2023/06/12 07:56:09+00,1,,,,Boston Common,252
-7909161.2597157,5205153.48399183,N_568579452955534204,Dorchester,Q2CK-S8TK-5BFB,DOT-MURPHY-AP1,"1 Worrell St, Dorchester, MA 02122",42.2942127699993,-71.0492044416863, BPS Murphy-School Outside ,2023/06/12 07:56:10+00,1,BPS,,Outside,Murphy School,253
-7911607.53118285,5205990.83337966,N_568579452955534204,Dorchester,Q2CK-CJQV-TSTH,DOT-MARSHALL-AP2,"35 Westville St., Dorchester, MA",42.2997765683813,-71.0711796721667, BPS Marshall-School Outside UP-Academy ,2023/06/12 07:56:10+00,1,BPS,,Outside,Marshall School UP Academy,254
-7909161.2597157,5205153.48399183,N_568579452955534204,Dorchester,Q2CK-FZJ6-67HG,DOT-MURPHY-AP2,"1 worrell st Dorchester, ma",42.2942127699993,-71.0492044416863, BCYF-Grant BPS Murphy-School Outside ,2023/06/12 07:56:10+00,1,,,Outside,Murphy School,255
-7910723.20873405,5208784.59637099,N_568579452955534204,Dorchester,Q2CK-G9M2-VTK4,DOT-BFD21-AP2,"641 Columbia Rd., Dorchester, MA",42.3183362717841,-71.0632356684482, BFD Engine-21 Outside ,2023/06/12 07:56:10+00,1,BFD,,Outside,Engine 21,256
-7910789.06630099,5214371.55607318,N_568579452955527921,Parks,Q2CK-MP93-YDN3,PARKS-COMMONEAST-AP1,"139 Tremont St, Boston, MA 02111",42.3554355018542,-71.0638272770378, Boston-Common ,2023/06/12 07:56:09+00,1,,,,Boston Common,257
-7909614.11230752,5217126.3597693,L_601230550253962688,Navy Yard,Q2EK-HAXQ-8XW4,NavyYard-AP2,Navy yard Cambridge,42.3737202378566,-71.053272485733,,2023/06/12 07:56:27+00,1,,,,,258
-7910476.25588518,5207288.2796015,N_568579452955534204,Dorchester,Q2CK-NJQU-RB55,DOT-MATHER-AP3,"24 Parrish St, Dorchester",42.3083965259321,-71.0610172532622, recently-added ,2023/06/12 07:56:10+00,1,,,,,259
-7912222.88106393,5210060.51558676,N_579275502070532581,Roxbury,Q2CK-NEZE-VRYJ,ROX-VINE-AP3,"339 Dudley St, Roxbury",42.3268107188774,-71.0767074541993, recently-added ,2023/06/12 07:56:15+00,1,,,,,260
